HULIANWANG DIGUI-156    
1 68130U 26047B   26201.60047787 -.00000093  00000+0  66039-4 0  9997
2 68130  50.0043 296.4758 0000902 221.3526 138.7278 13.29326495 17508
HULIANWANG DIGUI-157    
1 68131U 26047C   26201.29142503 -.00000094  00000+0  65469-4 0  9992
2 68131  50.0014 297.4806 0000927 217.4065 142.6743 13.29325835 17477
HULIANWANG DIGUI-158    
1 68132U 26047D   26201.43340545 -.00000098  00000+0  57170-4 0  9999
2 68132  50.0060 296.9476 0001015 216.4082 143.6722 13.29324557 17482
HULIANWANG DIGUI-159    
1 68133U 26047E   26201.65060158 -.00000136  00000+0 -25518-4 0  9998
2 68133  50.0017 296.0622 0001076 211.6225 148.4583 13.29325922 17522
HULIANWANG DIGUI-160    
1 68134U 26047F   26201.55863499 -.00000093  00000+0  66803-4 0  9990
2 68134  50.0086 296.3074 0001130 202.8553 157.2269 13.29326033 17501
HULIANWANG DIGUI-161    
1 68135U 26047G   26201.26627335 -.00000098  00000+0  55207-4 0  9997
2 68135  50.0104 297.4502 0000971 211.1675 148.9140 13.29325100 17476
HULIANWANG DIGUI-162    
1 68136U 26047H   26201.55051968 -.00000092  00000+0  68876-4 0  9993
2 68136  50.0075 296.2551 0000941 222.9408 137.1391 13.29324429 17501
HULIANWANG DIGUI-163    
1 68137U 26047J   26201.31641953 -.00000110  00000+0  30865-4 0  9995
2 68137  50.0076 297.0224 0000908 220.8798 139.2006 13.29325765 17488
HULIANWANG DIGUI-164    
1 68656U 26076A   26201.89673762 -.00000003  00000+0 -40794-4 0  9993
2 68656  86.4948  32.4914 0001928  78.7564 281.3787 13.24410548 13835
HULIANWANG DIGUI-165    
1 68657U 26076B   26201.88918425 -.00000026  00000+0 -94592-4 0  9991
2 68657  86.4965  32.5120 0002110  82.7379 277.3995 13.24413117 13839
HULIANWANG DIGUI-166    
1 68658U 26076C   26201.88169805 -.00000009  00000+0 -54964-4 0  9992
2 68658  86.4906  32.4427 0002079  82.9540 277.1830 13.24411239 13839
HULIANWANG DIGUI-167    
1 68659U 26076D   26201.94961759 -.00000018  00000+0 -76845-4 0  9990
2 68659  86.4960  32.4759 0002075  82.6286 277.5084 13.24413193 13845
HULIANWANG DIGUI-168    
1 68660U 26076E   26201.94207441 -.00000031  00000+0 -10528-3 0  9993
2 68660  86.4941  32.4507 0002099  82.8428 277.2945 13.24411117 13839
