{"fetched_at":"2026-07-21T07:06:55.004Z","source":"https://celestrak.org/NORAD/elements/gp.php?NAME=HULIANWANG&FORMAT=JSON","constellation":"guowang","records":[{"OBJECT_NAME":"HULIANWANG DIGUI-156","OBJECT_ID":"2026-047B","EPOCH":"2026-07-20T14:24:41.287968","CLASSIFICATION_TYPE":"U","MEAN_MOTION":13.29326495,"ECCENTRICITY":0.00009028,"INCLINATION":50.0043,"RA_OF_ASC_NODE":296.4758,"ARG_OF_PERICENTER":221.3526,"MEAN_ANOMALY":138.7278,"EPHEMERIS_TYPE":0,"NORAD_CAT_ID":68130,"ELEMENT_SET_NO":999,"REV_AT_EPOCH":1750,"BSTAR":0.000066039478,"MEAN_MOTION_DOT":-9.3e-7,"MEAN_MOTION_DDOT":0},{"OBJECT_NAME":"HULIANWANG DIGUI-157","OBJECT_ID":"2026-047C","EPOCH":"2026-07-20T06:59:39.122592","CLASSIFICATION_TYPE":"U","MEAN_MOTION":13.29325835,"ECCENTRICITY":0.00009271,"INCLINATION":50.0014,"RA_OF_ASC_NODE":297.4806,"ARG_OF_PERICENTER":217.4065,"MEAN_ANOMALY":142.6743,"EPHEMERIS_TYPE":0,"NORAD_CAT_ID":68131,"ELEMENT_SET_NO":999,"REV_AT_EPOCH":1747,"BSTAR":0.000065468687,"MEAN_MOTION_DOT":-9.4e-7,"MEAN_MOTION_DDOT":0},{"OBJECT_NAME":"HULIANWANG DIGUI-158","OBJECT_ID":"2026-047D","EPOCH":"2026-07-20T10:24:06.230880","CLASSIFICATION_TYPE":"U","MEAN_MOTION":13.29324557,"ECCENTRICITY":0.0001015,"INCLINATION":50.006,"RA_OF_ASC_NODE":296.9476,"ARG_OF_PERICENTER":216.4082,"MEAN_ANOMALY":143.6722,"EPHEMERIS_TYPE":0,"NORAD_CAT_ID":68132,"ELEMENT_SET_NO":999,"REV_AT_EPOCH":1748,"BSTAR":0.000057170311,"MEAN_MOTION_DOT":-9.8e-7,"MEAN_MOTION_DDOT":0},{"OBJECT_NAME":"HULIANWANG DIGUI-159","OBJECT_ID":"2026-047E","EPOCH":"2026-07-20T15:36:51.976512","CLASSIFICATION_TYPE":"U","MEAN_MOTION":13.29325922,"ECCENTRICITY":0.0001076,"INCLINATION":50.0017,"RA_OF_ASC_NODE":296.0622,"ARG_OF_PERICENTER":211.6225,"MEAN_ANOMALY":148.4583,"EPHEMERIS_TYPE":0,"NORAD_CAT_ID":68133,"ELEMENT_SET_NO":999,"REV_AT_EPOCH":1752,"BSTAR":-0.000025517913,"MEAN_MOTION_DOT":-0.00000136,"MEAN_MOTION_DDOT":0},{"OBJECT_NAME":"HULIANWANG DIGUI-160","OBJECT_ID":"2026-047F","EPOCH":"2026-07-20T13:24:26.063136","CLASSIFICATION_TYPE":"U","MEAN_MOTION":13.29326033,"ECCENTRICITY":0.00011302,"INCLINATION":50.0086,"RA_OF_ASC_NODE":296.3074,"ARG_OF_PERICENTER":202.8553,"MEAN_ANOMALY":157.2269,"EPHEMERIS_TYPE":0,"NORAD_CAT_ID":68134,"ELEMENT_SET_NO":999,"REV_AT_EPOCH":1750,"BSTAR":0.000066803201,"MEAN_MOTION_DOT":-9.3e-7,"MEAN_MOTION_DDOT":0},{"OBJECT_NAME":"HULIANWANG DIGUI-161","OBJECT_ID":"2026-047G","EPOCH":"2026-07-20T06:23:26.017440","CLASSIFICATION_TYPE":"U","MEAN_MOTION":13.293251,"ECCENTRICITY":0.00009712,"INCLINATION":50.0104,"RA_OF_ASC_NODE":297.4502,"ARG_OF_PERICENTER":211.1675,"MEAN_ANOMALY":148.914,"EPHEMERIS_TYPE":0,"NORAD_CAT_ID":68135,"ELEMENT_SET_NO":999,"REV_AT_EPOCH":1747,"BSTAR":0.000055207497,"MEAN_MOTION_DOT":-9.8e-7,"MEAN_MOTION_DDOT":0},{"OBJECT_NAME":"HULIANWANG DIGUI-162","OBJECT_ID":"2026-047H","EPOCH":"2026-07-20T13:12:44.900352","CLASSIFICATION_TYPE":"U","MEAN_MOTION":13.29324429,"ECCENTRICITY":0.00009419,"INCLINATION":50.0075,"RA_OF_ASC_NODE":296.2551,"ARG_OF_PERICENTER":222.9408,"MEAN_ANOMALY":137.1391,"EPHEMERIS_TYPE":0,"NORAD_CAT_ID":68136,"ELEMENT_SET_NO":999,"REV_AT_EPOCH":1750,"BSTAR":0.000068875851,"MEAN_MOTION_DOT":-9.2e-7,"MEAN_MOTION_DDOT":0},{"OBJECT_NAME":"HULIANWANG DIGUI-163","OBJECT_ID":"2026-047J","EPOCH":"2026-07-20T07:35:38.647392","CLASSIFICATION_TYPE":"U","MEAN_MOTION":13.29325765,"ECCENTRICITY":0.00009085,"INCLINATION":50.0076,"RA_OF_ASC_NODE":297.0224,"ARG_OF_PERICENTER":220.8798,"MEAN_ANOMALY":139.2006,"EPHEMERIS_TYPE":0,"NORAD_CAT_ID":68137,"ELEMENT_SET_NO":999,"REV_AT_EPOCH":1748,"BSTAR":0.000030864786,"MEAN_MOTION_DOT":-0.0000011,"MEAN_MOTION_DDOT":0},{"OBJECT_NAME":"HULIANWANG DIGUI-164","OBJECT_ID":"2026-076A","EPOCH":"2026-07-20T21:31:18.130368","CLASSIFICATION_TYPE":"U","MEAN_MOTION":13.24410548,"ECCENTRICITY":0.00019289,"INCLINATION":86.4948,"RA_OF_ASC_NODE":32.4914,"ARG_OF_PERICENTER":78.7564,"MEAN_ANOMALY":281.3787,"EPHEMERIS_TYPE":0,"NORAD_CAT_ID":68656,"ELEMENT_SET_NO":999,"REV_AT_EPOCH":1383,"BSTAR":-0.000040794128,"MEAN_MOTION_DOT":-3e-8,"MEAN_MOTION_DDOT":0},{"OBJECT_NAME":"HULIANWANG DIGUI-165","OBJECT_ID":"2026-076B","EPOCH":"2026-07-20T21:20:25.519200","CLASSIFICATION_TYPE":"U","MEAN_MOTION":13.24413117,"ECCENTRICITY":0.00021107,"INCLINATION":86.4965,"RA_OF_ASC_NODE":32.512,"ARG_OF_PERICENTER":82.7379,"MEAN_ANOMALY":277.3995,"EPHEMERIS_TYPE":0,"NORAD_CAT_ID":68657,"ELEMENT_SET_NO":999,"REV_AT_EPOCH":1383,"BSTAR":-0.000094591969,"MEAN_MOTION_DOT":-2.6e-7,"MEAN_MOTION_DDOT":0},{"OBJECT_NAME":"HULIANWANG DIGUI-166","OBJECT_ID":"2026-076C","EPOCH":"2026-07-20T21:09:38.711520","CLASSIFICATION_TYPE":"U","MEAN_MOTION":13.24411239,"ECCENTRICITY":0.00020794,"INCLINATION":86.4906,"RA_OF_ASC_NODE":32.4427,"ARG_OF_PERICENTER":82.954,"MEAN_ANOMALY":277.183,"EPHEMERIS_TYPE":0,"NORAD_CAT_ID":68658,"ELEMENT_SET_NO":999,"REV_AT_EPOCH":1383,"BSTAR":-0.000054963704,"MEAN_MOTION_DOT":-9e-8,"MEAN_MOTION_DDOT":0},{"OBJECT_NAME":"HULIANWANG DIGUI-167","OBJECT_ID":"2026-076D","EPOCH":"2026-07-20T22:47:26.959776","CLASSIFICATION_TYPE":"U","MEAN_MOTION":13.24413193,"ECCENTRICITY":0.00020755,"INCLINATION":86.496,"RA_OF_ASC_NODE":32.4759,"ARG_OF_PERICENTER":82.6286,"MEAN_ANOMALY":277.5084,"EPHEMERIS_TYPE":0,"NORAD_CAT_ID":68659,"ELEMENT_SET_NO":999,"REV_AT_EPOCH":1384,"BSTAR":-0.000076845449,"MEAN_MOTION_DOT":-1.8e-7,"MEAN_MOTION_DDOT":0},{"OBJECT_NAME":"HULIANWANG DIGUI-168","OBJECT_ID":"2026-076E","EPOCH":"2026-07-20T22:36:35.229024","CLASSIFICATION_TYPE":"U","MEAN_MOTION":13.24411117,"ECCENTRICITY":0.00020996,"INCLINATION":86.4941,"RA_OF_ASC_NODE":32.4507,"ARG_OF_PERICENTER":82.8428,"MEAN_ANOMALY":277.2945,"EPHEMERIS_TYPE":0,"NORAD_CAT_ID":68660,"ELEMENT_SET_NO":999,"REV_AT_EPOCH":1383,"BSTAR":-0.00010528378,"MEAN_MOTION_DOT":-3.1e-7,"MEAN_MOTION_DDOT":0}]}
